CUTE-1 (CO-55)          
1 27844U 03031E   25319.96281374  .00000728  00000+0  33511-3 0  9994
2 27844  98.6774 326.2106 0010695  85.4917 274.7483 14.24146864161321
CUBESAT XI-IV (CO-57)   
1 27848U 03031J   25319.98665486  .00000610  00000+0  28750-3 0  9999
2 27848  98.6801 326.1172 0010596 101.4604 258.7765 14.23459877161044
CUBESAT XI-V            
1 28895U 05043F   25320.67579025  .00003445  00000+0  55925-3 0  9991
2 28895  98.2705 107.3180 0014857 155.7709 204.4199 14.71752140 70484
CUTE-1.7+APD II (CO-65) 
1 32785U 08021C   25320.87282066  .00010673  00000+0  72350-3 0  9993
2 32785  97.8055 293.6080 0010697  38.4203 321.7784 15.06596072953192
CANX-2                  
1 32790U 08021H   25320.54689727  .00008608  00000+0  63625-3 0  9998
2 32790  97.8386 291.8430 0011842  45.9633 314.2565 15.03405956952838
SEEDS II (CO-66)        
1 32791U 08021J   25319.92866082  .00023786  00000+0  98199-3 0  9998
2 32791  97.7425 304.1809 0003683  21.6206 338.5185 15.24023163954716
SWISSCUBE               
1 35932U 09051B   25320.69347178  .00002340  00000+0  47800-3 0  9994
2 35932  98.4139 219.8084 0007296 144.2923 215.8767 14.61849442858100
BEESAT-1                
1 35933U 09051C   25320.46144146  .00002049  00000+0  42598-3 0  9995
2 35933  98.4069 219.6343 0005493 155.3745 204.7719 14.61185320858114
ITUPSAT1                
1 35935U 09051E   25320.47426627  .00001866  00000+0  39932-3 0  9999
2 35935  98.4159 219.0505 0007459 168.8267 191.3099 14.59948563857699
TISAT 1                 
1 36799U 10035E   25320.75570201  .00028237  00000+0  12303-2 0  9994
2 36799  98.0567 245.2676 0000541 327.5260  32.5941 15.22166586835280
AEROCUBE 4.5A           
1 38767U 12048K   25320.63437184  .00071594  00000+0  13339-2 0  9990
2 38767  64.6445  48.2345 0075442 238.5730 120.8017 15.45272208339435
STRAND-1                
1 39090U 13009E   25320.76715600  .00000750  00000+0  26736-3 0  9996
2 39090  98.3829 141.3241 0009333 140.3757 219.8113 14.36973544666552
BRITE-AUSTRIA           
1 39091U 13009F   25320.48329341  .00000504  00000+0  18642-3 0  9993
2 39091  98.3894 140.2801 0010730 149.8319 210.3487 14.36414400666513
NEE-01 PEGASO           
1 39151U 13018B   25320.13701479  .00005417  00000+0  53803-3 0  9994
2 39151  98.0947  92.8863 0013799 141.8262 218.3936 14.92090565678911
POPACS 1                
1 39268U 13055D   25320.06201451  .00184762  90062-5  78829-3 0  9990
2 39268  80.9586 246.3959 0144403 141.5848 219.5802 15.70893956639379
POPACS 2                
1 39269U 13055E   25320.44685555  .00033907  00000+0  62159-3 0  9994
2 39269  80.9973  26.2348 0452239 153.2872 209.2437 14.82258320631591
POPACS 3                
1 39270U 13055F   25320.43356373  .00012595  00000+0  31130-3 0  9993
2 39270  81.0012  99.0641 0570429 355.9542   3.7128 14.51294302607649
ZACUBE-1 (TSHEPISOSAT)  
1 39417U 13066B   25320.62282135  .00008939  00000+0  73547-3 0  9998
2 39417  97.7994 277.1403 0040764 234.8906 124.8493 14.98700170648868
WNISAT-1                
1 39423U 13066H   25320.71469022  .00002748  00000+0  51051-3 0  9995
2 39423  97.6914 120.3962 0164371 180.7332 179.3653 14.57539487635773
TRITON-1                
1 39427U 13066M   25320.82086209  .00004712  00000+0  58272-3 0  9998
2 39427  97.8302 230.5588 0091450 205.1018 154.5735 14.80292543642654
GOMX-1                  
1 39430U 13066Q   25320.80512027  .00003143  00000+0  48352-3 0  9997
2 39430  97.6618 169.5525 0131799  39.6902 321.3859 14.68421861638739
CUBEBUG-2 (LO-74)       
1 39440U 13066AA  25320.57953903  .00009224  00000+0  89312-3 0  9991
2 39440  97.8658 264.2987 0060743  13.2969 346.9833 14.91562505645271
NEE-02 KRYSAOR          
1 39441U 13066AB  25320.37181339  .00005673  00000+0  63800-3 0  9994
2 39441  97.8686 256.5341 0069100  48.1476 312.5609 14.85348344644597
FUNCUBE-1 (AO-73)       
1 39444U 13066AE  25320.66980242  .00012257  00000+0  84482-3 0  9994
2 39444  97.8012 283.6469 0038313 203.0454 156.9055 15.05379007647642
UWE-3                   
1 39446U 13066AG  25320.64980818  .00008836  00000+0  79868-3 0  9993
2 39446  97.8425 270.9959 0050155 309.1414  50.5353 14.94726004645803
BRITE-CA1 (TORONTO)     
1 40020U 14033L   25320.81177125  .00002515  00000+0  38914-3 0  9991
2 40020  97.9470  89.1203 0078381 236.3139 123.0578 14.72092536610968
DUCHIFAT-1              
1 40021U 14033M   25320.51313870  .00048803  00000+0  12931-2 0  9998
2 40021  98.0841 349.6444 0008668 111.2657 248.9513 15.38155629622810
NANOSATC-BR1            
1 40024U 14033Q   25320.00274191  .00021433  00000+0  90012-3 0  9994
2 40024  98.0916 329.5650 0003525 176.8758 183.2499 15.23474535621433
QB50P1                  
1 40025U 14033R   25320.44926322  .00015152  00000+0  84203-3 0  9999
2 40025  98.0961 312.3928 0007782 225.4425 134.6170 15.13785391620791
QB50P2                  
1 40032U 14033Y   25320.46468821  .00012879  00000+0  76953-3 0  9990
2 40032  98.0615 299.8994 0008095 164.3193 195.8287 15.11209583620495
PERSEUS-M2              
1 40037U 14033AD  25320.83727196  .00003564  00000+0  33500-3 0  9991
2 40037  97.9707 262.5381 0010716 286.2263  73.7777 14.94534238619058
PERSEUS-M1              
1 40039U 14033AF  25320.62182176  .00003784  00000+0  35501-3 0  9990
2 40039  97.9413 256.7142 0010432 285.3884  74.6183 14.94578386618870
POLYITAN-1              
1 40042U 14033AJ  25320.37057008  .00028577  00000+0  11653-2 0  9999
2 40042  98.1086 322.7766 0008919 154.9424 205.2246 15.24374864621074
TIGRISAT                
1 40043U 14033AK  25320.67556016  .00003558  00000+0  42436-3 0  9992
2 40043  97.7542 111.1071 0051388  52.6388 307.9491 14.83952616614094
AEROCUBE 6A             
1 40045U 14033AM  25320.41167813  .00011304  00000+0  10270-2 0  9997
2 40045  97.7042 125.3522 0041129   9.2154 350.9812 14.94762737614797
AEROCUBE 6B             
1 40046U 14033AN  25320.40929211  .00011902  00000+0  10471-2 0  9992
2 40046  97.7022 124.7356 0039504   1.7292 358.4059 14.96056625614901
CANX-4                  
1 40055U 14034C   25320.60223903  .00001900  00000+0  25423-3 0  9991
2 40055  98.3382 182.7817 0012501 340.1074  19.9648 14.80685538613062
CANX-5                  
1 40056U 14034D   25320.40032723  .00002191  00000+0  29194-3 0  9990
2 40056  98.3384 182.6028 0012528 341.1289  18.9456 14.80700708603844
UKUBE-1                 
1 40074U 14037F   25320.66586535  .00016457  00000+0  10439-2 0  9997
2 40074  98.4124 297.4924 0002986 109.7838 250.3710 15.08998519616458
BRITE-PL2 (HEWELIUSZ)   
1 40119U 14049B   25320.67268263  .00003259  00000+0  31460-3 0  9990
2 40119  97.8996  66.4106 0015674  94.3359 265.9651 14.93485089609712
AEROCUBE 5C             
1 40965U 15058B   25320.04270358  .00004063  00000+0  36398-3 0  9998
2 40965  64.7679 204.9446 0141397 146.1180 214.9066 14.89872374333886
AEROCUBE 7              
1 40966U 15058C   25320.61056131  .00006319  00000+0  51716-3 0  9990
2 40966  64.7624 189.6491 0131918 145.6588 215.3143 14.93573886334186
FOX-1A (AO-85)          
1 40967U 15058D   25320.08650205  .00004081  00000+0  37343-3 0  9998
2 40967  64.7758 220.4884 0138049 140.1184 221.0172 14.89385863 81815
SINOD-D 1               
1 40968U 15058E   25320.40911815  .00006616  00000+0  54615-3 0  9999
2 40968  64.7755 204.2063 0126674 138.3707 222.7135 14.93690323 84852
SNAP-3 ALICE            
1 40970U 15058G   25320.82160492  .00065752  00000+0  20705-2 0  9993
2 40970  64.7603 100.0619 0049792 136.0234 224.4877 15.31309959 84107
LMRST-SAT               
1 40971U 15058H   25320.05680399  .00003759  00000+0  34607-3 0  9998
2 40971  64.7760 216.5349 0140609 141.8390 219.2781 14.89047035 81807
SNAP-3 EDDIE            
1 40972U 15058J   25320.81581351  .00064136  00000+0  19651-2 0  9998
2 40972  64.7527  92.0686 0053251 139.1642 221.3500 15.32005833 86229
PROPCUBE 3              
1 40973U 15058K   25320.05711875  .00005130  00000+0  43447-3 0  9991
2 40973  64.7691 197.5389 0134223 143.9497 217.0761 14.92328776 82971
BISONSAT                
1 40974U 15058L   25319.92984060  .00020145  00000+0  11190-2 0  9996
2 40974  64.7598 140.1860 0092022 140.9629 219.8183 15.10163749 83348
SNAP-3 JIMI             
1 40975U 15058M   25320.30689466  .00010177  00000+0  73301-3 0  9990
2 40975  64.7645 171.8731 0117010 142.4531 218.4831 14.99216339 82270
PROPCUBE 1 (FLORA)      
1 40976U 15058N   25320.76082618  .00003917  00000+0  37303-3 0  9993
2 40976  64.7751 232.9102 0139884 143.6743 217.3964 14.87751581 84649
SINOD-D 3               
1 40977U 15058P   25320.71366512  .00005743  00000+0  49617-3 0  9997
2 40977  64.7730 218.3366 0128765 142.6164 218.3995 14.91950963 83036
HORYU-4                 
1 41340U 16012D   25320.78129895  .00062449  00000+0  11564-2 0  9996
2 41340  30.9930 127.7950 0005475 332.0809  27.9546 15.47689165537522
RAVAN                   
1 41849U 16067B   25320.57001234  .00038612  00000+0  10515-2 0  9993
2 41849  98.0199 183.2903 0008993  41.9694 318.2237 15.37360337494856
CELTEE 1                
1 41850U 16067C   25320.54639579  .00009255  00000+0  47487-3 0  9991
2 41850  98.0901 167.6556 0000462 110.5354 249.5927 15.16780665493610
OPTICUBE 04             
1 41851U 16067D   25320.50016039  .00005369  00000+0  34918-3 0  9995
2 41851  98.0844 156.5891 0017159 114.6091 245.6926 15.08334738493095
AEROCUBE 8D             
1 41852U 16067E   25320.55801589  .00012104  00000+0  55773-3 0  9990
2 41852  98.0923 169.7560 0004447 132.0743 228.0869 15.20441892493711
AEROCUBE 8C             
1 41853U 16067F   25320.54776549  .00012378  00000+0  56707-3 0  9998
2 41853  98.0785 167.2704 0007198  76.3731 283.8304 15.20622151493705
PROMETHEUS 2-1          
1 41854U 16067G   25320.18573215  .00537306  00000+0  19746-2 0  9998
2 41854  98.0396 194.9199 0005694  76.1148 284.0754 15.86968387495281
